STARLINK-5336           
1 57138U 23090AP  24233.00084327 -.00009261  00000+0 -67103-3 0  9995
2 57138  43.0007 101.2945 0001262 297.4223  62.6491 15.02556985 65120
STARLINK-5355           
1 57139U 23090AQ  24233.31657695 -.00001158  00000+0 -70679-4 0  9994
2 57139  43.0035  99.3579 0001284 284.2836  75.7864 15.02534921 65170
STARLINK-5354           
1 57140U 23090AR  24233.91667824  .00300657  00000+0  13466-2 0  9990
2 57140  42.9957  46.7872 0010053 305.3911  23.0531 15.82501286 64877
STARLINK-5357           
1 57141U 23090AS  24233.04510957 -.00001502  00000+0 -96106-4 0  9992
2 57141  43.0085 100.7535 0001770 254.9412 105.1235 15.02537726 65133
STARLINK-5361           
1 57142U 23090AT  24233.04067967 -.00000548  00000+0 -25528-4 0  9990
2 57142  43.0038 100.7234 0001168 257.9521 102.1190 15.02534786 65133
STARLINK-5358           
1 57143U 23090AU  24232.97087201  .00007916  00000+0  60039-3 0  9994
2 57143  43.0034 101.0623 0001585 254.7764 105.2903 15.02537595 65129
STARLINK-5150           
1 57144U 23090AV  24233.31435761  .00000218  00000+0  31197-4 0  9994
2 57144  43.0049  99.3429 0001167 286.5661  73.5053 15.02539989 65171
STARLINK-5768           
1 57145U 23090AW  24233.02846165  .00018544  00000+0  13832-2 0  9992
2 57145  43.0025 100.6328 0001423 271.4146  88.6534 15.02562491 65137
STARLINK-5791           
1 57146U 23090AX  24232.37035375 -.00000093  00000+0  81674-5 0  9996
2 57146  43.0030 104.3010 0001471 277.2498  82.8177 15.02531178 65036
STARLINK-5765           
1 57147U 23090AY  24232.69164065 -.00002824  00000+0 -19409-3 0  9991
2 57147  43.0018 102.4030 0001411 276.4894  83.5787 15.02527549 65277
STARLINK-5788           
1 57148U 23090AZ  24233.34975689  .00003336  00000+0  26184-3 0  9992
2 57148  43.0012  98.7468 0001585 270.3981  89.6679 15.02545586 65184
STARLINK-5778           
1 57149U 23090BA  24232.30659484  .00001266  00000+0  10884-3 0  9990
2 57149  43.0045  78.6381 0001845 264.0538  96.0094 15.02529096 65517
STARLINK-5780           
1 57150U 23090BB  24233.36418975  .00002082  00000+0  16920-3 0  9991
2 57150  43.0030  98.8498 0002928 269.0560  90.9946 15.02531958 64236
STARLINK-5776           
1 57151U 23090BC  24233.36309700 -.00000999  00000+0 -58929-4 0  9990
2 57151  43.0048  98.8403 0000648  53.0876 307.0026 15.02525560 65379
STARLINK-6164           
1 57152U 23090BD  24232.36924047  .00000292  00000+0  36723-4 0  9999
2 57152  43.0049 104.2828 0001522 261.9133  98.1537 15.02533750 65221
STARLINK-5879           
1 57153U 23090BE  24233.32349225 -.00003495  00000+0 -24383-3 0  9994
2 57153  43.0023  86.3938 0001425 281.6470  78.4212 15.02528661 65014
STARLINK-6106           
1 57154U 23090BF  24232.69274874 -.00001558  00000+0 -10029-3 0  9991
2 57154  43.0029 102.4136 0001596 277.1068  82.9593 15.02528905 65274
STARLINK-6108           
1 57155U 23090BG  24233.34309124 -.00002499  00000+0 -16991-3 0  9991
2 57155  43.0004  98.6949 0001908 261.1005  98.9622 15.02550623 65370
STARLINK-6137           
1 57156U 23090BH  24233.34642779  .00001825  00000+0  15011-3 0  9990
2 57156  43.0039  98.7192 0001378 270.7198  89.3487 15.02541377 65379
METEOR-M2 3             
1 57166U 23091A   24233.83324831  .00000136  00000+0  78537-4 0  9999
2 57166  98.7080 287.9119 0003047 313.5492  46.5433 14.23915843 59826
STRATOSAT-TK 1 (RS52S)  
1 57167U 23091B   24233.87597707  .00029982  00000+0  15921-2 0  9994
2 57167  97.6057 286.8623 0013448 252.0853 107.8913 15.15189386 63344
2023-091C               
1 57168U 23091C   24233.82808570  .00015205  00000+0  93893-3 0  9991
2 57168  97.6055 285.5222 0014959 257.7025 102.2529 15.09892031 63258
2023-091D               
1 57169U 23091D   24233.82118922  .00013665  00000+0  85157-3 0  9999
2 57169  97.6087 285.6661 0012594 245.3172 114.6745 15.09609590 63254
2023-091E               
1 57170U 23091E   24233.82133260  .00013748  00000+0  85700-3 0  9999
2 57170  97.6093 285.6966 0011349 235.5716 124.4441 15.09609890 63258
2023-091F               
1 57171U 23091F   24233.82101003  .00013735  00000+0  85569-3 0  9999
2 57171  97.6090 285.6787 0013400 257.1247 102.8485 15.09609375 63252
UMKA 1 (RS40S)          
1 57172U 23091G   24233.82662057  .00011835  00000+0  75668-3 0  9999
2 57172  97.6064 285.2435 0015196 259.1902 100.7616 15.08674797 63234
2023-091H               
1 57173U 23091H   24233.71372403  .00015138  00000+0  93758-3 0  9991
2 57173  97.6058 285.2386 0013281 268.7731  91.1976 15.09801954 63221
2023-091J               
1 57174U 23091J   24233.83898192  .00008817  00000+0  60144-3 0  9992
2 57174  97.6069 284.4860 0014172 271.6449  88.3155 15.06373812 63187
CUBEBEL 2 (EU11S)       
1 57175U 23091K   24233.87387549  .00015373  00000+0  95414-3 0  9999
2 57175  97.6067 285.3226 0013176 270.9883  88.9836 15.09723363 63241
SITRO-AIS 5 (KATYS)     
1 57176U 23091L   24233.87130009  .00015852  00000+0  97546-3 0  9997
2 57176  97.6074 285.5403 0015702 258.1299 101.8169 15.09999074 63254
ZORKIY-2M 1             
1 57177U 23091M   24233.87988441  .00010930  00000+0  69562-3 0  9998
2 57177  97.6083 285.4192 0015869 254.5250 105.4226 15.08857289 63243
CUBESX-HSE 3 (RS42S)    
1 57178U 23091N   24233.84842538  .00016299  00000+0  98942-3 0  9990
2 57178  97.6093 285.8743 0015612 251.7013 108.2518 15.10490685 63266
2023-091P               
1 57179U 23091P   24233.81220425  .00009301  00000+0  61596-3 0  9994
2 57179  97.6113 285.0439 0016483 254.2504 105.6906 15.07426299 63206
MONITOR-3 (RS58S)       
1 57180U 23091Q   24233.85769975  .00014614  00000+0  90226-3 0  9993
2 57180  97.6090 285.6740 0015766 252.2797 107.6711 15.09896424 63252
2023-091R               
1 57181U 23091R   24233.81891785  .00008187  00000+0  55155-3 0  9995
2 57181  97.6073 284.6634 0016374 262.6078  97.3289 15.06834686 63195
MONITOR-4 (RS57S)       
1 57182U 23091S   24233.85827811  .00014865  00000+0  91741-3 0  9990
2 57182  97.6085 285.6436 0015798 253.1139 106.8358 15.09904974 63253
2023-091T               
1 57183U 23091T   24233.81030222  .00009934  00000+0  63356-3 0  9991
2 57183  97.6101 285.7500 0012511 244.7321 115.2612 15.08845247 63258
MONITOR-2 (RS39S)       
1 57184U 23091U   24233.85498104  .00009639  00000+0  61836-3 0  9996
2 57184  97.6090 285.6776 0012617 246.6890 113.3011 15.08635507 63257
2023-091V               
1 57185U 23091V   24233.81575272  .00018883  00000+0  10875-2 0  9992
2 57185  97.6090 286.6413 0010865 247.4732 112.5349 15.12416229 63319
CSTP 1.2 (STC 1.2)      
1 57186U 23091W   24233.86306119  .00011422  00000+0  67841-3 0  9998
2 57186  97.6069 286.2171 0015225 238.8702 121.1035 15.11371946 63299
SVYATOBOR 1 (RS60S)     
1 57187U 23091X   24233.80521840  .00013611  00000+0  82695-3 0  9999
2 57187  97.6097 286.2109 0012019 242.2370 117.7642 15.10543766 63284
HORS 1                  
1 57188U 23091Y   24233.86772077  .00013880  00000+0  84342-3 0  9995
2 57188  97.6075 286.1827 0011387 242.2399 117.7676 15.10538372 63290
VIZARD-METEO (RS38S)    
1 57189U 23091Z   24233.82797601  .00018184  00000+0  10517-2 0  9996
2 57189  97.6089 286.7540 0011203 238.7912 121.2221 15.12268174 63324
NANOZOND 1 (RS49S)      
1 57190U 23091AA  24233.84062712  .00027798  00000+0  14630-2 0  9999
2 57190  97.6057 287.5179 0009619 240.9113 119.1157 15.15560858 63381
POLYTECH-UNIVERSE 3 (R*)
1 57191U 23091AB  24233.86156749  .00009681  00000+0  62058-3 0  9995
2 57191  97.6060 285.3361 0017570 265.9345  93.9876 15.08604289 63245
SITRO-AIS 6 (CHIRKIN)   
1 57192U 23091AC  24233.85399784  .00015089  00000+0  92757-3 0  9991
2 57192  97.6066 285.5518 0015662 257.9896 101.9578 15.10047167 63259
SITRO-AIS 8 (ANOKHIN)   
1 57193U 23091AD  24233.80634362  .00016859  00000+0  10237-2 0  9999
2 57193  97.6071 285.6055 0015239 258.9681 100.9835 15.10477835 63250
SITRO-AIS 7 (FARTUSHNIY)
1 57194U 23091AE  24233.86114320  .00015194  00000+0  93554-3 0  9998
2 57194  97.6068 285.5348 0015426 258.6435 101.3062 15.09991098 63250
AVION KALUGA 650        
1 57195U 23091AF  24233.83799736  .00010600  00000+0  67390-3 0  9992
2 57195  97.6101 285.9236 0012073 247.9020 112.0927 15.08948598 63261
HORS 2                  
1 57196U 23091AG  24233.85956415  .00015890  00000+0  93709-3 0  9993
2 57196  97.6086 286.5693 0011389 243.0999 116.9068 15.11592387 63319
A-SEANSAT-PG1           
1 57197U 23091AH  24233.86615220  .00018043  00000+0  10464-2 0  9990
2 57197  97.6069 286.6134 0010999 244.9915 115.0173 15.12172443 63322
YARILO 3                
1 57198U 23091AJ  24233.82677680  .00049725  00000+0  22297-2 0  9993
2 57198  97.6106 288.9213 0009869 236.0518 123.9779 15.20999891 63450
SITRO-AIS 10 (BURDAEV)  
1 57199U 23091AK  24233.82949719  .00019478  00000+0  11213-2 0  9997
2 57199  97.6084 286.7271 0010969 244.2213 115.7886 15.12423771 63326
2023-091AL              
1 57200U 23091AL  24233.80378079  .00020311  00000+0  11415-2 0  9995
2 57200  97.6102 287.0172 0011350 236.4291 123.5857 15.13273082 63333
SITRO-AIS 9 (SHCHUKIN)  
1 57201U 23091AM  24233.82867814  .00019487  00000+0  11226-2 0  9990
2 57201  97.6079 286.7011 0010926 244.1355 115.8749 15.12398995 63323
CSTP 1.1 (STC 1.1)      
1 57202U 23091AN  24233.86128500  .00009817  00000+0  63052-3 0  9998
2 57202  97.6124 285.7964 0010249 242.9392 117.0791 15.08611600 63255
UTMN 2 (RS27S)          
1 57203U 23091AP  24233.84200401  .00016705  00000+0  98328-3 0  9996
2 57203  97.6083 286.5786 0011598 239.7150 120.2933 15.11648388 63313
SITRO-AIS 12 (SMIRENNIY)
1 57204U 23091AQ  24233.84908561  .00018144  00000+0  10401-2 0  9993
2 57204  97.6083 286.8787 0010938 237.6477 122.3695 15.12592136 63334
ARCCUBE 1 (RS25S)       
1 57205U 23091AR  24233.82929765  .00032981  00000+0  16581-2 0  9991
2 57205  97.6027 287.7152 0009679 241.4374 118.5885 15.17135511 63409
2023-091AS              
1 57206U 23091AS  24233.82079456  .00024663  00000+0  13357-2 0  9991
2 57206  97.6052 287.1896 0009885 243.3562 116.6658 15.14567552 63369
